{"type": "FeatureCollection", "features": [ {"type": "Feature", "properties": {"norad_id": 57401, "name": "TIANMU-1 09", "group": "weather", "lat": 34.62892747903701, "lon": 39.678173886924974, "alt_km": 474.95181860180674, "timestamp": "2025-12-21T18:54:58.136134+00:00", "meta": {"OBJECT_NAME": "TIANMU-1 09", "OBJECT_ID": "2023-101C", "EPOCH": "2025-12-21T14:02:57.814368", "MEAN_MOTION": 15.28202711, "ECCENTRICITY": 0.00064441, "INCLINATION": 97.2808, "RA_OF_ASC_NODE": 44.5455, "ARG_OF_PERICENTER": 59.5843, "MEAN_ANOMALY": 300.6033, "EPHEMERIS_TYPE": 0, "CLASSIFICATION_TYPE": "U", "NORAD_CAT_ID": 57401, "ELEMENT_SET_NO": 999, "REV_AT_EPOCH": 13450, "BSTAR": 0.00021132623, "MEAN_MOTION_DOT": 5.738e-05, "MEAN_MOTION_DDOT": 0}, "tle": {"line1": "1 57401U 23101C   25355.58539137  .00005738  00000+0  21133-3 0  9990", "line2": "2 57401  97.2808  44.5455 0006444  59.5843 300.6033 15.28202711134509"}}, "geometry": {"type": "Point", "coordinates": [39.678173886924974, 34.62892747903701]}}, {"type": "Feature", "properties": {"norad_id": 57402, "name": "TIANMU-1 10", "group": "weather", "lat": -26.654146661345337, "lon": -138.08049172685182, "alt_km": 491.85491586730495, "timestamp": "2025-12-21T18:54:58.136144+00:00", "meta": {"OBJECT_NAME": "TIANMU-1 10", "OBJECT_ID": "2023-101D", "EPOCH": "2025-12-21T14:52:17.887008", "MEAN_MOTION": 15.28194757, "ECCENTRICITY": 0.00081632, "INCLINATION": 97.2888, "RA_OF_ASC_NODE": 45.4382, "ARG_OF_PERICENTER": 57.6503, "MEAN_ANOMALY": 302.5526, "EPHEMERIS_TYPE": 0, "CLASSIFICATION_TYPE": "U", "NORAD_CAT_ID": 57402, "ELEMENT_SET_NO": 999, "REV_AT_EPOCH": 13450, "BSTAR": 0.00022322851, "MEAN_MOTION_DOT": 6.066e-05, "MEAN_MOTION_DDOT": 0}, "tle": {"line1": "1 57402U 23101D   25355.61965147  .00006066  00000+0  22323-3 0  9996", "line2": "2 57402  97.2888  45.4382 0008163  57.6503 302.5526 15.28194757134507"}}, "geometry": {"type": "Point", "coordinates": [-138.08049172685182, -26.654146661345337]}}, {"type": "Feature", "properties": {"norad_id": 57490, "name": "FENGYUN 3F", "group": "weather", "lat": -6.422112217642278, "lon": -117.05328596803622, "alt_km": 829.2499158299279, "timestamp": "2025-12-21T18:54:58.136155+00:00", "meta": {"OBJECT_NAME": "FENGYUN 3F", "OBJECT_ID": "2023-111A", "EPOCH": "2025-12-21T14:39:31.561344", "MEAN_MOTION": 14.19895797, "ECCENTRICITY": 7.763e-05, "INCLINATION": 98.7072, "RA_OF_ASC_NODE": 63.7606, "ARG_OF_PERICENTER": 114.3973, "MEAN_ANOMALY": 245.7285, "EPHEMERIS_TYPE": 0, "CLASSIFICATION_TYPE": "U", "NORAD_CAT_ID": 57490, "ELEMENT_SET_NO": 999, "REV_AT_EPOCH": 12366, "BSTAR": 5.5532004e-05, "MEAN_MOTION_DOT": 7.4e-07, "MEAN_MOTION_DDOT": 0}, "tle": {"line1": "1 57490U 23111A   25355.61078196  .00000074  00000+0  55532-4 0  9995", "line2": "2 57490  98.7072  63.7606 0000776 114.3973 245.7285 14.19895797123667"}}, "geometry": {"type": "Point", "coordinates": [-117.05328596803622, -6.422112217642278]}}, {"type": "Feature", "properties": {"norad_id": 58584, "name": "ARKTIKA-M 2", "group": "weather", "lat": -28.28920806783917, "lon": 158.11882997586974, "alt_km": 4074.777193349436, "timestamp": "2025-12-21T18:54:58.136167+00:00", "meta": {"OBJECT_NAME": "ARKTIKA-M 2", "OBJECT_ID": "2023-198A", "EPOCH": "2025-12-20T07:20:06.590112", "MEAN_MOTION": 2.00602824, "ECCENTRICITY": 0.68654675, "INCLINATION": 63.225, "RA_OF_ASC_NODE": 174.0676, "ARG_OF_PERICENTER": 268.0739, "MEAN_ANOMALY": 18.8406, "EPHEMERIS_TYPE": 0, "CLASSIFICATION_TYPE": "U", "NORAD_CAT_ID": 58584, "ELEMENT_SET_NO": 999, "REV_AT_EPOCH": 1473, "BSTAR": 0, "MEAN_MOTION_DOT": 2.01e-06, "MEAN_MOTION_DDOT": 0}, "tle": {"line1": "1 58584U 23198A   25354.30563183  .00000201  00000+0  00000+0 0  9992", "line2": "2 58584  63.2250 174.0676 6865467 268.0739  18.8406  2.00602824 14734"}}, "geometry": {"type": "Point", "coordinates": [158.11882997586974, -28.28920806783917]}}, {"type": "Feature", "properties": {"norad_id": 58645, "name": "TIANMU-1 11", "group": "weather", "lat": -82.23605942610743, "lon": 86.68791617693765, "alt_km": 493.8919066072158, "timestamp": "2025-12-21T18:54:58.136179+00:00", "meta": {"OBJECT_NAME": "TIANMU-1 11", "OBJECT_ID": "2023-205A", "EPOCH": "2025-12-21T14:34:26.406048", "MEAN_MOTION": 15.24698296, "ECCENTRICITY": 0.00075191, "INCLINATION": 97.3594, "RA_OF_ASC_NODE": 15.0748, "ARG_OF_PERICENTER": 272.5906, "MEAN_ANOMALY": 87.4471, "EPHEMERIS_TYPE": 0, "CLASSIFICATION_TYPE": "U", "NORAD_CAT_ID": 58645, "ELEMENT_SET_NO": 999, "REV_AT_EPOCH": 11044, "BSTAR": 0.00020545448, "MEAN_MOTION_DOT": 5.013e-05, "MEAN_MOTION_DDOT": 0}, "tle": {"line1": "1 58645U 23205A   25355.60725007  .00005013  00000+0  20545-3 0  9994", "line2": "2 58645  97.3594  15.0748 0007519 272.5906  87.4471 15.24698296110448"}}, "geometry": {"type": "Point", "coordinates": [86.68791617693765, -82.23605942610743]}}, {"type": "Feature", "properties": {"norad_id": 58646, "name": "TIANMU-1 12", "group": "weather", "lat": 58.30078756160165, "lon": -152.8672466382078, "alt_km": 488.9931940218912, "timestamp": "2025-12-21T18:54:58.136189+00:00", "meta": {"OBJECT_NAME": "TIANMU-1 12", "OBJECT_ID": "2023-205B", "EPOCH": "2025-12-21T15:14:12.937344", "MEAN_MOTION": 15.24583716, "ECCENTRICITY": 0.00058311, "INCLINATION": 97.3582, "RA_OF_ASC_NODE": 14.9043, "ARG_OF_PERICENTER": 250.8717, "MEAN_ANOMALY": 109.189, "EPHEMERIS_TYPE": 0, "CLASSIFICATION_TYPE": "U", "NORAD_CAT_ID": 58646, "ELEMENT_SET_NO": 999, "REV_AT_EPOCH": 11043, "BSTAR": 0.00019982215, "MEAN_MOTION_DOT": 4.855e-05, "MEAN_MOTION_DDOT": 0}, "tle": {"line1": "1 58646U 23205B   25355.63487196  .00004855  00000+0  19982-3 0  9998", "line2": "2 58646  97.3582  14.9043 0005831 250.8717 109.1890 15.24583716110432"}}, "geometry": {"type": "Point", "coordinates": [-152.8672466382078, 58.30078756160165]}}, {"type": "Feature", "properties": {"norad_id": 58647, "name": "TIANMU-1 13", "group": "weather", "lat": -60.82085661950727, "lon": 28.645477415382157, "alt_km": 497.6865535437764, "timestamp": "2025-12-21T18:54:58.136199+00:00", "meta": {"OBJECT_NAME": "TIANMU-1 13", "OBJECT_ID": "2023-205C", "EPOCH": "2025-12-21T14:27:39.177792", "MEAN_MOTION": 15.24626665, "ECCENTRICITY": 0.00063583, "INCLINATION": 97.3609, "RA_OF_ASC_NODE": 15.0773, "ARG_OF_PERICENTER": 227.7887, "MEAN_ANOMALY": 132.2812, "EPHEMERIS_TYPE": 0, "CLASSIFICATION_TYPE": "U", "NORAD_CAT_ID": 58647, "ELEMENT_SET_NO": 999, "REV_AT_EPOCH": 11042, "BSTAR": 0.00021067638, "MEAN_MOTION_DOT": 5.13e-05, "MEAN_MOTION_DDOT": 0}, "tle": {"line1": "1 58647U 23205C   25355.60253678  .00005130  00000+0  21068-3 0  9997", "line2": "2 58647  97.3609  15.0773 0006358 227.7887 132.2812 15.24626665110422"}}, "geometry": {"type": "Point", "coordinates": [28.645477415382157, -60.82085661950727]}}, {"type": "Feature", "properties": {"norad_id": 58648, "name": "TIANMU-1 14", "group": "weather", "lat": 28.481422412454897, "lon": 10.58201440414432, "alt_km": 495.18679889354735, "timestamp": "2025-12-21T18:54:58.136209+00:00", "meta": {"OBJECT_NAME": "TIANMU-1 14", "OBJECT_ID": "2023-205D", "EPOCH": "2025-12-21T14:03:53.267616", "MEAN_MOTION": 15.24609785, "ECCENTRICITY": 0.00070962, "INCLINATION": 97.3541, "RA_OF_ASC_NODE": 14.4016, "ARG_OF_PERICENTER": 234.1666, "MEAN_ANOMALY": 125.8913, "EPHEMERIS_TYPE": 0, "CLASSIFICATION_TYPE": "U", "NORAD_CAT_ID": 58648, "ELEMENT_SET_NO": 999, "REV_AT_EPOCH": 11042, "BSTAR": 0.00020581633, "MEAN_MOTION_DOT": 5.008e-05, "MEAN_MOTION_DDOT": 0}, "tle": {"line1": "1 58648U 23205D   25355.58603319  .00005008  00000+0  20582-3 0  9990", "line2": "2 58648  97.3541  14.4016 0007096 234.1666 125.8913 15.24609785110422"}}, "geometry": {"type": "Point", "coordinates": [10.58201440414432, 28.481422412454897]}}, {"type": "Feature", "properties": {"norad_id": 58660, "name": "TIANMU-1 19", "group": "weather", "lat": 32.87939776065794, "lon": 101.96301478279862, "alt_km": 483.0137657811165, "timestamp": "2025-12-21T18:54:58.136219+00:00", "meta": {"OBJECT_NAME": "TIANMU-1 19", "OBJECT_ID": "2023-208A", "EPOCH": "2025-12-21T14:03:22.099680", "MEAN_MOTION": 15.27997693, "ECCENTRICITY": 0.00045617, "INCLINATION": 97.4395, "RA_OF_ASC_NODE": 106.6063, "ARG_OF_PERICENTER": 214.1404, "MEAN_ANOMALY": 145.9542, "EPHEMERIS_TYPE": 0, "CLASSIFICATION_TYPE": "U", "NORAD_CAT_ID": 58660, "ELEMENT_SET_NO": 999, "REV_AT_EPOCH": 11017, "BSTAR": 0.00028432127, "MEAN_MOTION_DOT": 7.694e-05, "MEAN_MOTION_DDOT": 0}, "tle": {"line1": "1 58660U 23208A   25355.58567245  .00007694  00000+0  28432-3 0  9999", "line2": "2 58660  97.4395 106.6063 0004561 214.1404 145.9542 15.27997693110176"}}, "geometry": {"type": "Point", "coordinates": [101.96301478279862, 32.87939776065794]}}, {"type": "Feature", "properties": {"norad_id": 58661, "name": "TIANMU-1 20", "group": "weather", "lat": 33.41223506717083, "lon": -67.79418755606338, "alt_km": 475.6061485544633, "timestamp": "2025-12-21T18:54:58.136229+00:00", "meta": {"OBJECT_NAME": "TIANMU-1 20", "OBJECT_ID": "2023-208B", "EPOCH": "2025-12-21T13:34:01.388640", "MEAN_MOTION": 15.29187961, "ECCENTRICITY": 0.00066191, "INCLINATION": 97.4333, "RA_OF_ASC_NODE": 107.0422, "ARG_OF_PERICENTER": 228.9796, "MEAN_ANOMALY": 131.0872, "EPHEMERIS_TYPE": 0, "CLASSIFICATION_TYPE": "U", "NORAD_CAT_ID": 58661, "ELEMENT_SET_NO": 999, "REV_AT_EPOCH": 11024, "BSTAR": 0.00026307135, "MEAN_MOTION_DOT": 7.38e-05, "MEAN_MOTION_DDOT": 0}, "tle": {"line1": "1 58661U 23208B   25355.56529385  .00007380  00000+0  26307-3 0  9992", "line2": "2 58661  97.4333 107.0422 0006619 228.9796 131.0872 15.29187961110247"}}, "geometry": {"type": "Point", "coordinates": [-67.79418755606338, 33.41223506717083]}}]}